[{"OBJECT_NAME":"YUNYAO-1 19","OBJECT_ID":"2024-009B","EPOCH":"2026-03-09T22:41:16.279584","MEAN_MOTION":15.16041229,"ECCENTRICITY":0.00054864,"INCLINATION":49.9832,"RA_OF_ASC_NODE":292.0338,"ARG_OF_PERICENTER":239.381,"MEAN_ANOMALY":120.6601,"EPHEMERIS_TYPE":0,"CLASSIFICATION_TYPE":"U","NORAD_CAT_ID":58759,"ELEMENT_SET_NO":999,"REV_AT_EPOCH":11960,"BSTAR":0.00060829215,"MEAN_MOTION_DOT":0.00011575,"MEAN_MOTION_DDOT":0},{"OBJECT_NAME":"H-2A R\/B","OBJECT_ID":"2006-002B","EPOCH":"2026-03-09T22:32:18.942432","MEAN_MOTION":15.16426804,"ECCENTRICITY":0.00518947,"INCLINATION":98.2413,"RA_OF_ASC_NODE":215.9838,"ARG_OF_PERICENTER":240.1322,"MEAN_ANOMALY":119.4746,"EPHEMERIS_TYPE":0,"CLASSIFICATION_TYPE":"U","NORAD_CAT_ID":28932,"ELEMENT_SET_NO":999,"REV_AT_EPOCH":9447,"BSTAR":0.00057792596,"MEAN_MOTION_DOT":0.00011556,"MEAN_MOTION_DDOT":0}]
